[{"OBJECT_NAME":"ONEWEB-0720","OBJECT_ID":"2023-029AR","EPOCH":"2025-08-09T08:45:24.918336","MEAN_MOTION":13.19724949,"ECCENTRICITY":0.000198,"INCLINATION":87.9242,"RA_OF_ASC_NODE":6.9793,"ARG_OF_PERICENTER":82.9493,"MEAN_ANOMALY":277.1865,"EPHEMERIS_TYPE":0,"CLASSIFICATION_TYPE":"U","NORAD_CAT_ID":55835,"ELEMENT_SET_NO":999,"REV_AT_EPOCH":11771,"BSTAR":0.00036699,"MEAN_MOTION_DOT":1.6e-6,"MEAN_MOTION_DDOT":0},{"OBJECT_NAME":"ONEWEB-0537","OBJECT_ID":"2023-043A","EPOCH":"2025-08-09T10:55:16.580928","MEAN_MOTION":13.16592755,"ECCENTRICITY":0.0001844,"INCLINATION":87.9045,"RA_OF_ASC_NODE":290.8997,"ARG_OF_PERICENTER":101.6777,"MEAN_ANOMALY":258.4561,"EPHEMERIS_TYPE":0,"CLASSIFICATION_TYPE":"U","NORAD_CAT_ID":56046,"ELEMENT_SET_NO":999,"REV_AT_EPOCH":11794,"BSTAR":-2.7665e-6,"MEAN_MOTION_DOT":1.2e-7,"MEAN_MOTION_DDOT":0},{"OBJECT_NAME":"ONEWEB-0538","OBJECT_ID":"2023-043B","EPOCH":"2025-08-09T14:25:03.034848","MEAN_MOTION":13.1659403,"ECCENTRICITY":0.0001787,"INCLINATION":87.9037,"RA_OF_ASC_NODE":290.8854,"ARG_OF_PERICENTER":93.4919,"MEAN_ANOMALY":266.6416,"EPHEMERIS_TYPE":0,"CLASSIFICATION_TYPE":"U","NORAD_CAT_ID":56047,"ELEMENT_SET_NO":999,"REV_AT_EPOCH":11797,"BSTAR":-0.0001028,"MEAN_MOTION_DOT":-2.6e-7,"MEAN_MOTION_DDOT":0},{"OBJECT_NAME":"ONEWEB-0546","OBJECT_ID":"2023-043C","EPOCH":"2025-08-09T14:06:48.326976","MEAN_MOTION":13.16594182,"ECCENTRICITY":0.0001754,"INCLINATION":87.9048,"RA_OF_ASC_NODE":290.8665,"ARG_OF_PERICENTER":117.5605,"MEAN_ANOMALY":242.5705,"EPHEMERIS_TYPE":0,"CLASSIFICATION_TYPE":"U","NORAD_CAT_ID":56048,"ELEMENT_SET_NO":999,"REV_AT_EPOCH":11796,"BSTAR":4.8287e-5,"MEAN_MOTION_DOT":3.1e-7,"MEAN_MOTION_DDOT":0},{"OBJECT_NAME":"ONEWEB-0547","OBJECT_ID":"2023-043D","EPOCH":"2025-08-09T12:45:35.399808","MEAN_MOTION":13.21825204,"ECCENTRICITY":0.0001904,"INCLINATION":87.9265,"RA_OF_ASC_NODE":306.1568,"ARG_OF_PERICENTER":92.8871,"MEAN_ANOMALY":267.2481,"EPHEMERIS_TYPE":0,"CLASSIFICATION_TYPE":"U","NORAD_CAT_ID":56049,"ELEMENT_SET_NO":999,"REV_AT_EPOCH":11705,"BSTAR":0.00010046,"MEAN_MOTION_DOT":5.5e-7,"MEAN_MOTION_DDOT":0},{"OBJECT_NAME":"ONEWEB-0548","OBJECT_ID":"2023-043E","EPOCH":"2025-08-09T12:53:50.382816","MEAN_MOTION":13.16592304,"ECCENTRICITY":0.0002491,"INCLINATION":87.903,"RA_OF_ASC_NODE":290.9057,"ARG_OF_PERICENTER":100.2493,"MEAN_ANOMALY":259.8918,"EPHEMERIS_TYPE":0,"CLASSIFICATION_TYPE":"U","NORAD_CAT_ID":56050,"ELEMENT_SET_NO":999,"REV_AT_EPOCH":11795,"BSTAR":-0.00010881,"MEAN_MOTION_DOT":-2.9e-7,"MEAN_MOTION_DDOT":0},{"OBJECT_NAME":"ONEWEB-0549","OBJECT_ID":"2023-043F","EPOCH":"2025-08-09T14:22:05.774016","MEAN_MOTION":13.21824774,"ECCENTRICITY":0.000186,"INCLINATION":87.9265,"RA_OF_ASC_NODE":306.1578,"ARG_OF_PERICENTER":91.0334,"MEAN_ANOMALY":269.1013,"EPHEMERIS_TYPE":0,"CLASSIFICATION_TYPE":"U","NORAD_CAT_ID":56051,"ELEMENT_SET_NO":999,"REV_AT_EPOCH":11706,"BSTAR":9.9152e-5,"MEAN_MOTION_DOT":5.4e-7,"MEAN_MOTION_DDOT":0},{"OBJECT_NAME":"ONEWEB-0550","OBJECT_ID":"2023-043G","EPOCH":"2025-08-09T12:14:56.582304","MEAN_MOTION":13.21826035,"ECCENTRICITY":0.0002103,"INCLINATION":87.9267,"RA_OF_ASC_NODE":306.1693,"ARG_OF_PERICENTER":102.4994,"MEAN_ANOMALY":257.6375,"EPHEMERIS_TYPE":0,"CLASSIFICATION_TYPE":"U","NORAD_CAT_ID":56052,"ELEMENT_SET_NO":999,"REV_AT_EPOCH":11705,"BSTAR":3.7175e-5,"MEAN_MOTION_DOT":2.8e-7,"MEAN_MOTION_DDOT":0},{"OBJECT_NAME":"ONEWEB-0551","OBJECT_ID":"2023-043H","EPOCH":"2025-08-09T13:09:38.564064","MEAN_MOTION":13.15547351,"ECCENTRICITY":0.0001913,"INCLINATION":87.9078,"RA_OF_ASC_NODE":321.3939,"ARG_OF_PERICENTER":91.9968,"MEAN_ANOMALY":268.1381,"EPHEMERIS_TYPE":0,"CLASSIFICATION_TYPE":"U","NORAD_CAT_ID":56053,"ELEMENT_SET_NO":999,"REV_AT_EPOCH":11542,"BSTAR":-6.4714e-5,"MEAN_MOTION_DOT":-1.2e-7,"MEAN_MOTION_DDOT":0},{"OBJECT_NAME":"ONEWEB-0552","OBJECT_ID":"2023-043J","EPOCH":"2025-08-09T12:05:50.808192","MEAN_MOTION":13.21826915,"ECCENTRICITY":0.0002141,"INCLINATION":87.9267,"RA_OF_ASC_NODE":306.1794,"ARG_OF_PERICENTER":91.2142,"MEAN_ANOMALY":268.9237,"EPHEMERIS_TYPE":0,"CLASSIFICATION_TYPE":"U","NORAD_CAT_ID":56054,"ELEMENT_SET_NO":999,"REV_AT_EPOCH":11705,"BSTAR":0.00027121,"MEAN_MOTION_DOT":1.25e-6,"MEAN_MOTION_DDOT":0},{"OBJECT_NAME":"ONEWEB-0553","OBJECT_ID":"2023-043K","EPOCH":"2025-08-09T14:15:54.708480","MEAN_MOTION":13.16592513,"ECCENTRICITY":0.0002002,"INCLINATION":87.9037,"RA_OF_ASC_NODE":290.885,"ARG_OF_PERICENTER":108.6446,"MEAN_ANOMALY":251.4902,"EPHEMERIS_TYPE":0,"CLASSIFICATION_TYPE":"U","NORAD_CAT_ID":56055,"ELEMENT_SET_NO":999,"REV_AT_EPOCH":11797,"BSTAR":-5.3668e-5,"MEAN_MOTION_DOT":-8.0e-8,"MEAN_MOTION_DDOT":0},{"OBJECT_NAME":"ONEWEB-0554","OBJECT_ID":"2023-043L","EPOCH":"2025-08-09T13:57:40.982112","MEAN_MOTION":13.16595706,"ECCENTRICITY":0.0002292,"INCLINATION":87.9032,"RA_OF_ASC_NODE":290.9139,"ARG_OF_PERICENTER":100.4032,"MEAN_ANOMALY":259.7358,"EPHEMERIS_TYPE":0,"CLASSIFICATION_TYPE":"U","NORAD_CAT_ID":56056,"ELEMENT_SET_NO":999,"REV_AT_EPOCH":11795,"BSTAR":0.00014516,"MEAN_MOTION_DOT":6.8e-7,"MEAN_MOTION_DDOT":0},{"OBJECT_NAME":"ONEWEB-0555","OBJECT_ID":"2023-043M","EPOCH":"2025-08-09T11:13:32.666016","MEAN_MOTION":13.16593167,"ECCENTRICITY":0.0001939,"INCLINATION":87.9037,"RA_OF_ASC_NODE":290.9048,"ARG_OF_PERICENTER":114.9697,"MEAN_ANOMALY":245.1635,"EPHEMERIS_TYPE":0,"CLASSIFICATION_TYPE":"U","NORAD_CAT_ID":56057,"ELEMENT_SET_NO":999,"REV_AT_EPOCH":11794,"BSTAR":-0.00011829,"MEAN_MOTION_DOT":-3.2e-7,"MEAN_MOTION_DDOT":0},{"OBJECT_NAME":"ONEWEB-0557","OBJECT_ID":"2023-043N","EPOCH":"2025-08-09T13:23:29.268096","MEAN_MOTION":13.16594822,"ECCENTRICITY":0.0003003,"INCLINATION":87.9029,"RA_OF_ASC_NODE":290.9072,"ARG_OF_PERICENTER":118.356,"MEAN_ANOMALY":241.7874,"EPHEMERIS_TYPE":0,"CLASSIFICATION_TYPE":"U","NORAD_CAT_ID":56058,"ELEMENT_SET_NO":999,"REV_AT_EPOCH":11795,"BSTAR":0.00018466,"MEAN_MOTION_DOT":8.3e-7,"MEAN_MOTION_DDOT":0},{"OBJECT_NAME":"ONEWEB-0558","OBJECT_ID":"2023-043P","EPOCH":"2025-08-09T11:56:47.157792","MEAN_MOTION":13.21827204,"ECCENTRICITY":0.0001825,"INCLINATION":87.9266,"RA_OF_ASC_NODE":306.1764,"ARG_OF_PERICENTER":85.449,"MEAN_ANOMALY":274.6853,"EPHEMERIS_TYPE":0,"CLASSIFICATION_TYPE":"U","NORAD_CAT_ID":56059,"ELEMENT_SET_NO":999,"REV_AT_EPOCH":11706,"BSTAR":0.00039892,"MEAN_MOTION_DOT":1.78e-6,"MEAN_MOTION_DDOT":0},{"OBJECT_NAME":"ONEWEB-0559","OBJECT_ID":"2023-043Q","EPOCH":"2025-08-09T11:40:51.727584","MEAN_MOTION":13.21827458,"ECCENTRICITY":0.0002189,"INCLINATION":87.9264,"RA_OF_ASC_NODE":306.1706,"ARG_OF_PERICENTER":88.6991,"MEAN_ANOMALY":271.4394,"EPHEMERIS_TYPE":0,"CLASSIFICATION_TYPE":"U","NORAD_CAT_ID":56060,"ELEMENT_SET_NO":999,"REV_AT_EPOCH":11707,"BSTAR":0.00017374,"MEAN_MOTION_DOT":8.5e-7,"MEAN_MOTION_DDOT":0},{"OBJECT_NAME":"ONEWEB-0566","OBJECT_ID":"2023-043R","EPOCH":"2025-08-09T13:20:46.835232","MEAN_MOTION":13.21827339,"ECCENTRICITY":0.0001999,"INCLINATION":87.9266,"RA_OF_ASC_NODE":306.1548,"ARG_OF_PERICENTER":89.2343,"MEAN_ANOMALY":270.902,"EPHEMERIS_TYPE":0,"CLASSIFICATION_TYPE":"U","NORAD_CAT_ID":56061,"ELEMENT_SET_NO":999,"REV_AT_EPOCH":11706,"BSTAR":0.00016479,"MEAN_MOTION_DOT":8.1e-7,"MEAN_MOTION_DDOT":0}]
