ONEWEB-0720             
1 55835U 23029AR  25221.36487174  .00000160  00000+0  36699-3 0  9996
2 55835  87.9242   6.9793 0001980  82.9493 277.1865 13.19724949117719
ONEWEB-0537             
1 56046U 23043A   25221.45505302  .00000012  00000+0 -27665-5 0  9993
2 56046  87.9045 290.8997 0001844 101.6777 258.4561 13.16592755117943
ONEWEB-0538             
1 56047U 23043B   25221.60072957 -.00000026  00000+0 -10280-3 0  9995
2 56047  87.9037 290.8854 0001787  93.4919 266.6416 13.16594030117970
ONEWEB-0546             
1 56048U 23043C   25221.58805934  .00000031  00000+0  48287-4 0  9995
2 56048  87.9048 290.8665 0001754 117.5605 242.5705 13.16594182117968
ONEWEB-0547             
1 56049U 23043D   25221.53165972  .00000055  00000+0  10046-3 0  9999
2 56049  87.9265 306.1568 0001904  92.8871 267.2481 13.21825204117053
ONEWEB-0548             
1 56050U 23043E   25221.53738869 -.00000029  00000+0 -10881-3 0  9992
2 56050  87.9030 290.9057 0002491 100.2493 259.8918 13.16592304117951
ONEWEB-0549             
1 56051U 23043F   25221.59867794  .00000054  00000+0  99152-4 0  9994
2 56051  87.9265 306.1578 0001860  91.0334 269.1013 13.21824774117067
ONEWEB-0550             
1 56052U 23043G   25221.51037711  .00000028  00000+0  37175-4 0  9993
2 56052  87.9267 306.1693 0002103 102.4994 257.6375 13.21826035117052
ONEWEB-0551             
1 56053U 23043H   25221.54836301 -.00000012  00000+0 -64714-4 0  9993
2 56053  87.9078 321.3939 0001913  91.9968 268.1381 13.15547351115423
ONEWEB-0552             
1 56054U 23043J   25221.50406028  .00000125  00000+0  27121-3 0  9992
2 56054  87.9267 306.1794 0002141  91.2142 268.9237 13.21826915117057
ONEWEB-0553             
1 56055U 23043K   25221.59438320 -.00000008  00000+0 -53668-4 0  9990
2 56055  87.9037 290.8850 0002002 108.6446 251.4902 13.16592513117976
ONEWEB-0554             
1 56056U 23043L   25221.58172433  .00000068  00000+0  14516-3 0  9992
2 56056  87.9032 290.9139 0002292 100.4032 259.7358 13.16595706117956
ONEWEB-0555             
1 56057U 23043M   25221.46773919 -.00000032  00000+0 -11829-3 0  9993
2 56057  87.9037 290.9048 0001939 114.9697 245.1635 13.16593167117940
ONEWEB-0557             
1 56058U 23043N   25221.55797764  .00000083  00000+0  18466-3 0  9996
2 56058  87.9029 290.9072 0003003 118.3560 241.7874 13.16594822117957
ONEWEB-0558             
1 56059U 23043P   25221.49776803  .00000178  00000+0  39892-3 0  9992
2 56059  87.9266 306.1764 0001825  85.4490 274.6853 13.21827204117068
ONEWEB-0559             
1 56060U 23043Q   25221.48670981  .00000085  00000+0  17374-3 0  9991
2 56060  87.9264 306.1706 0002189  88.6991 271.4394 13.21827458117076
ONEWEB-0566             
1 56061U 23043R   25221.55609763  .00000081  00000+0  16479-3 0  9991
2 56061  87.9266 306.1548 0001999  89.2343 270.9020 13.21827339117066
